NORAD_CAT_ID,OBJECT_NAME,OBJECT_TYPE,EPOCH,MEAN_MOTION,ECCENTRICITY,INCLINATION,RA_OF_ASC_NODE,ARG_OF_PERICENTER,MEAN_ANOMALY,BSTAR,MEAN_MOTION_DOT,MEAN_MOTION_DDOT,TLE_LINE0,TLE_LINE1,TLE_LINE2,SEMIMAJOR_AXIS,PERIOD,APOGEE,PERIGEE,DECAYED
56466.0,STARLINK-6053,PAYLOAD,2024-01-23 21:37:14,14.98333795,0.0002496,70.001,300.3662,248.8211,111.2681,-1.5001e-05,-2.72e-06,0.0,0 STARLINK-6053,1 56466U 23064U   24023.90085754 -.00000272  00000-0 -15001-4 0  9995,2 56466  70.0010 300.3662 0002496 248.8211 111.2681 14.98333795 39042,6950.181,96.107,573.781,570.311,0.0
56466.0,STARLINK-6053,PAYLOAD,2024-01-24 04:01:45,14.9833917,0.0002532,70.0016,299.6943,239.0174,121.0736,7.4331e-05,7.94e-06,0.0,0 STARLINK-6053,1 56466U 23064U   24024.16789048  .00000794  00000-0  74331-4 0  9999,2 56466  70.0016 299.6943 0002532 239.0174 121.0736 14.98339170 39448,6950.165,96.106,573.789,570.27,0.0
56466.0,STARLINK-6053,PAYLOAD,2024-01-24 20:03:07,14.9832635,0.0002625,70.0011,298.0109,255.9943,104.0925,-9.665e-09,-9.3e-07,0.0,0 STARLINK-6053,1 56466U 23064U   24024.83549952 -.00000093  00000-0 -96650-8 0  9997,2 56466  70.0011 298.0109 0002625 255.9943 104.0925 14.98326350 39542,6950.204,96.107,573.894,570.245,0.0
56466.0,STARLINK-6053,PAYLOAD,2024-01-24 21:39:15,14.98327706,0.0002871,70.0002,297.8408,265.4018,94.6813,-3.5246e-05,-5.13e-06,0.0,0 STARLINK-6053,1 56466U 23064U   24024.90225998 -.00000513  00000-0 -35246-4 0  9993,2 56466  70.0002 297.8408 0002871 265.4018  94.6813 14.98327706 39190,6950.2,96.107,574.06,570.07,0.0
56466.0,STARLINK-6053,PAYLOAD,2024-01-25 04:03:47,14.98330393,0.0002857,70.0002,297.169,258.8519,101.2319,-5.7276e-05,-7.76e-06,0.0,0 STARLINK-6053,1 56466U 23064U   24025.16929832 -.00000776  00000-0 -57276-4 0  9998,2 56466  70.0002 297.1690 0002857 258.8519 101.2319 14.98330393 39239,6950.192,96.107,574.042,570.071,0.0
56466.0,STARLINK-6053,PAYLOAD,2024-01-25 20:05:08,14.98331696,0.0002812,70.0,295.4857,251.8539,108.2314,-0.00012241,-1.553e-05,0.0,0 STARLINK-6053,1 56466U 23064U   24025.83690046 -.00001553  00000-0 -12241-3 0  9990,2 56466  70.0000 295.4857 0002812 251.8539 108.2314 14.98331696 39698,6950.188,96.107,574.007,570.098,0.0
56466.0,STARLINK-6053,PAYLOAD,2024-01-25 21:41:16,14.98327575,0.0002765,70.0,295.3165,256.508,103.5771,-5.4332e-05,-7.41e-06,0.0,0 STARLINK-6053,1 56466U 23064U   24025.90366099 -.00000741  00000-0 -54332-4 0  9992,2 56466  70.0000 295.3165 0002765 256.5080 103.5771 14.98327575 39347,6950.2,96.107,573.987,570.144,0.0
56466.0,STARLINK-6053,PAYLOAD,2024-01-26 04:05:48,14.98329594,0.0002663,70.0002,294.6435,254.4577,105.6288,-5.0908e-05,-7e-06,0.0,0 STARLINK-6053,1 56466U 23064U   24026.17069993 -.00000700  00000-0 -50908-4 0  9995,2 56466  70.0002 294.6435 0002663 254.4577 105.6288 14.98329594 39389,6950.194,96.107,573.91,570.208,0.0
56466.0,STARLINK-6053,PAYLOAD,2024-01-26 18:30:57,14.98358256,0.0002645,70.0002,293.1277,265.6518,94.4339,0.00034994,4.088e-05,0.0,0 STARLINK-6053,1 56466U 23064U   24026.77150271  .00004088  00000-0  34994-3 0  9998,2 56466  70.0002 293.1277 0002645 265.6518  94.4339 14.98358256 39835,6950.106,96.105,573.809,570.132,0.0
56466.0,STARLINK-6053,PAYLOAD,2024-01-27 02:31:41,14.98315399,0.0002894,70.0001,292.2864,245.5364,114.5493,-0.00014118,-1.776e-05,0.0,0 STARLINK-6053,1 56466U 23064U   24027.10534037 -.00001776  00000-0 -14118-3 0  9991,2 56466  70.0001 292.2864 0002894 245.5364 114.5493 14.98315399 39889,6950.238,96.108,574.114,570.092,0.0
56466.0,STARLINK-6053,PAYLOAD,2024-01-27 04:07:49,14.98314391,0.0002758,70.0001,292.1174,253.6687,106.4169,-0.00014712,-1.847e-05,0.0,0 STARLINK-6053,1 56466U 23064U   24027.17210212 -.00001847  00000-0 -14712-3 0  9993,2 56466  70.0001 292.1174 0002758 253.6687 106.4169 14.98314391 39532,6950.241,96.108,574.023,570.189,0.0
56466.0,STARLINK-6053,PAYLOAD,2024-01-27 20:09:10,14.98320055,0.0003033,69.9993,290.4322,265.0244,95.0569,-0.00013199,-1.667e-05,0.0,0 STARLINK-6053,1 56466U 23064U   24027.83970150 -.00001667  00000-0 -13199-3 0  9998,2 56466  69.9993 290.4322 0003033 265.0244  95.0569 14.98320055 39999,6950.224,96.108,574.197,569.981,0.0
56466.0,STARLINK-6053,PAYLOAD,2024-01-27 21:45:18,14.98320562,0.0003012,69.9993,290.264,265.0087,95.0728,-0.00012414,-1.574e-05,0.0,0 STARLINK-6053,1 56466U 23064U   24027.90646121 -.00001574  00000-0 -12414-3 0  9990,2 56466  69.9993 290.2640 0003012 265.0087  95.0728 14.98320562 39644,6950.222,96.108,574.18,569.994,0.0
56466.0,STARLINK-6053,PAYLOAD,2024-01-28 02:33:42,14.98323972,0.000282,69.9995,289.7592,261.0419,99.0421,-7.7719e-05,-1.02e-05,0.0,0 STARLINK-6053,1 56466U 23064U   24028.10673837 -.00001020  00000-0 -77719-4 0  9993,2 56466  69.9995 289.7592 0002820 261.0419  99.0421 14.98323972 40033,6950.212,96.107,574.036,570.117,0.0
56466.0,STARLINK-6053,PAYLOAD,2024-01-28 20:11:10,14.98353049,0.0002881,69.9994,287.907,264.9374,95.1456,-0.00055445,-6.706e-05,0.0,0 STARLINK-6053,1 56466U 23064U   24028.84109247 -.00006706  00000-0 -55445-3 0  9990,2 56466  69.9994 287.9070 0002881 264.9374  95.1456 14.98353049 40147,6950.122,96.106,573.989,569.984,0.0
56466.0,STARLINK-6053,PAYLOAD,2024-01-28 21:47:18,14.98345092,0.0002798,69.9995,287.7386,264.605,95.479,-0.00041893,-5.09e-05,0.0,0 STARLINK-6053,1 56466U 23064U   24028.90785271 -.00005090  00000-0 -41893-3 0  9991,2 56466  69.9995 287.7386 0002798 264.6050  95.4790 14.98345092 39793,6950.146,96.106,573.956,570.067,0.0
56466.0,STARLINK-6053,PAYLOAD,2024-01-29 02:35:41,14.98364818,0.0002907,69.9997,287.2337,265.3588,94.7239,-0.00053306,-6.453e-05,0.0,0 STARLINK-6053,1 56466U 23064U   24029.10812055 -.00006453  00000-0 -53306-3 0  9991,2 56466  69.9997 287.2337 0002907 265.3588  94.7239 14.98364818 40184,6950.085,96.105,573.971,569.93,0.0
56466.0,STARLINK-6053,PAYLOAD,2024-01-30 02:37:43,14.98323156,0.0002517,70.0002,284.7104,247.1873,112.9021,8.8242e-05,9.6e-06,0.0,0 STARLINK-6053,1 56466U 23064U   24030.10953573  .00000960  00000-0  88242-4 0  9997,2 56466  70.0002 284.7104 0002517 247.1873 112.9021 14.98323156 40339,6950.214,96.107,573.828,570.33,0.0
56466.0,STARLINK-6053,PAYLOAD,2024-01-30 21:51:20,14.98331489,0.0002685,69.9995,282.6898,253.7226,106.3637,-2.6598e-05,-4.1e-06,0.0,0 STARLINK-6053,1 56466U 23064U   24030.91065459 -.00000410  00000-0 -26598-4 0  9991,2 56466  69.9995 282.6898 0002685 253.7226 106.3637 14.98331489 40096,6950.188,96.107,573.919,570.187,0.0
56466.0,STARLINK-6053,PAYLOAD,2024-01-31 02:39:44,14.98332297,0.0002866,69.999,282.1837,269.288,90.795,-2.1398e-05,-3.48e-06,0.0,0 STARLINK-6053,1 56466U 23064U   24031.11093440 -.00000348  00000-0 -21398-4 0  9998,2 56466  69.9990 282.1837 0002866 269.2880  90.7950 14.98332297 40483,6950.186,96.107,574.043,570.059,0.0
56466.0,STARLINK-6053,PAYLOAD,2024-02-01 02:41:45,14.98328463,0.000279,69.9992,279.6592,274.6831,85.401,-2.2999e-05,-3.67e-06,0.0,0 STARLINK-6053,1 56466U 23064U   24032.11233789 -.00000367  00000-0 -22999-4 0  9990,2 56466  69.9992 279.6592 0002790 274.6831  85.4010 14.98328463 40631,6950.198,96.107,574.002,570.124,0.0
56466.0,STARLINK-6053,PAYLOAD,2024-02-01 15:30:50,14.98328008,0.0002773,69.9991,278.3126,275.0943,84.99,1.8998e-06,-7e-07,0.0,0 STARLINK-6053,1 56466U 23064U   24032.64641778 -.00000070  00000-0  18998-5 0  9994,2 56466  69.9991 278.3126 0002773 275.0943  84.9900 14.98328008 40355,6950.199,96.107,573.991,570.137,0.0
56466.0,STARLINK-6053,PAYLOAD,2024-02-02 01:07:38,14.98329452,0.0002716,69.9991,277.3027,275.6872,84.3977,2.1162e-05,1.6e-06,0.0,0 STARLINK-6053,1 56466U 23064U   24033.04697663  .00000160  00000-0  21162-4 0  9998,2 56466  69.9991 277.3027 0002716 275.6872  84.3977 14.98329452 40417,6950.195,96.107,573.947,570.172,0.0
56466.0,STARLINK-6053,PAYLOAD,2024-02-02 18:45:07,14.98329563,0.0002773,69.9986,275.4519,265.7118,94.3725,1.9019e-05,1.34e-06,0.0,0 STARLINK-6053,1 56466U 23064U   24033.78133567  .00000134  00000-0  19019-4 0  9996,2 56466  69.9986 275.4519 0002773 265.7118  94.3725 14.98329563 40888,6950.194,96.107,573.987,570.132,0.0
56466.0,STARLINK-6053,PAYLOAD,2024-02-02 21:57:23,14.98329333,0.0002778,69.9986,275.115,263.5083,96.5759,1.7476e-05,1.16e-06,0.0,0 STARLINK-6053,1 56466U 23064U   24033.91485566  .00000116  00000-0  17476-4 0  9995,2 56466  69.9986 275.1150 0002778 263.5083  96.5759 14.98329333 40547,6950.195,96.107,573.991,570.129,0.0
56466.0,STARLINK-6053,PAYLOAD,2024-02-03 02:45:47,14.98330042,0.0002756,69.9986,274.61,263.4769,96.6077,2.3551e-05,1.88e-06,0.0,0 STARLINK-6053,1 56466U 23064U   24034.11513501  .00000188  00000-0  23551-4 0  9999,2 56466  69.9986 274.6100 0002756 263.4769  96.6077 14.98330042 40578,6950.193,96.107,573.973,570.142,0.0
56466.0,STARLINK-6053,PAYLOAD,2024-02-03 18:47:08,14.98329774,0.0002707,69.9987,272.9268,261.0847,99.0006,-4.7407e-06,-1.5e-06,0.0,0 STARLINK-6053,1 56466U 23064U   24034.78273578 -.00000150  00000-0 -47407-5 0  9997,2 56466  69.9987 272.9268 0002707 261.0847  99.0006 14.98329774 41033,6950.194,96.107,573.94,570.177,0.0
56466.0,STARLINK-6053,PAYLOAD,2024-02-03 21:59:24,14.9832955,0.0002731,69.9986,272.5899,262.3362,97.7486,-1.0385e-05,-2.17e-06,0.0,0 STARLINK-6053,1 56466U 23064U   24034.91625609 -.00000217  00000-0 -10385-4 0  9996,2 56466  69.9986 272.5899 0002731 262.3362  97.7486 14.98329550 40691,6950.194,96.107,573.957,570.161,0.0
56466.0,STARLINK-6053,PAYLOAD,2024-02-04 01:11:40,14.98331101,0.0002798,69.9983,272.2524,268.1178,91.966,-2.1739e-06,-1.19e-06,0.0,0 STARLINK-6053,1 56466U 23064U   24035.04977509 -.00000119  00000-0 -21739-5 0  9997,2 56466  69.9983 272.2524 0002798 268.1178  91.9660 14.98331101 40710,6950.189,96.107,573.999,570.11,0.0
56466.0,STARLINK-6053,PAYLOAD,2024-02-04 20:25:17,14.98328089,0.0002788,69.9983,270.2323,267.7396,92.3443,-2.2919e-05,-3.66e-06,0.0,0 STARLINK-6053,1 56466U 23064U   24035.85089757 -.00000366  00000-0 -22919-4 0  9999,2 56466  69.9983 270.2323 0002788 267.7396  92.3443 14.98328089 41199,6950.199,96.107,574.002,570.126,0.0
